{"type": "FeatureCollection", "features": [ {"type": "Feature", "properties": {"norad_id": 31381, "name": "FENGYUN 1C DEB", "group": "fengyun-1c-debris", "lat": -7.022478696936159, "lon": 85.63529726962125, "alt_km": 631.0634003047426, "timestamp": "2025-12-27T08:36:18.664447+00:00", "meta": {"OBJECT_NAME": "FENGYUN 1C DEB", "OBJECT_ID": "1999-025BSM", "EPOCH": "2025-12-25T11:31:13.278720", "MEAN_MOTION": 14.37075498, "ECCENTRICITY": 0.0197793, "INCLINATION": 98.4914, "RA_OF_ASC_NODE": 82.7259, "ARG_OF_PERICENTER": 353.9152, "MEAN_ANOMALY": 5.9634, "EPHEMERIS_TYPE": 0, "CLASSIFICATION_TYPE": "U", "NORAD_CAT_ID": 31381, "ELEMENT_SET_NO": 999, "REV_AT_EPOCH": 97583, "BSTAR": 0.00034323, "MEAN_MOTION_DOT": 1.225e-05, "MEAN_MOTION_DDOT": 0}, "tle": {"line1": "1 31381U 99025BSM 25359.48001480  .00001225  00000+0  34323-3 0  9997", "line2": "2 31381  98.4914  82.7259 0197793 353.9152   5.9634 14.37075498975837"}}, "geometry": {"type": "Point", "coordinates": [85.63529726962125, -7.022478696936159]}}, {"type": "Feature", "properties": {"norad_id": 31383, "name": "FENGYUN 1C DEB", "group": "fengyun-1c-debris", "lat": 2.077571935479691, "lon": -116.36870131174366, "alt_km": 887.7257304026143, "timestamp": "2025-12-27T08:36:18.664457+00:00", "meta": {"OBJECT_NAME": "FENGYUN 1C DEB", "OBJECT_ID": "1999-025BSP", "EPOCH": "2025-12-17T10:22:17.465376", "MEAN_MOTION": 14.05711597, "ECCENTRICITY": 0.01077198, "INCLINATION": 99.0662, "RA_OF_ASC_NODE": 53.3693, "ARG_OF_PERICENTER": 304.1704, "MEAN_ANOMALY": 68.9908, "EPHEMERIS_TYPE": 0, "CLASSIFICATION_TYPE": "U", "NORAD_CAT_ID": 31383, "ELEMENT_SET_NO": 999, "REV_AT_EPOCH": 95435, "BSTAR": 0.00049128566, "MEAN_MOTION_DOT": 7.98e-06, "MEAN_MOTION_DDOT": 0}, "tle": {"line1": "1 31383U 99025BSP 25351.43214659  .00000798  00000+0  49129-3 0  9994", "line2": "2 31383  99.0662  53.3693 0107719 304.1704  68.9908 14.05711597954351"}}, "geometry": {"type": "Point", "coordinates": [-116.36870131174366, 2.077571935479691]}}, {"type": "Feature", "properties": {"norad_id": 31384, "name": "FENGYUN 1C DEB", "group": "fengyun-1c-debris", "lat": -72.4380915756891, "lon": -5.898981894045655, "alt_km": 858.2564408119242, "timestamp": "2025-12-27T08:36:18.664467+00:00", "meta": {"OBJECT_NAME": "FENGYUN 1C DEB", "OBJECT_ID": "1999-025BSQ", "EPOCH": "2025-12-26T20:56:47.404032", "MEAN_MOTION": 13.863172, "ECCENTRICITY": 0.0439828, "INCLINATION": 98.4563, "RA_OF_ASC_NODE": 325.6231, "ARG_OF_PERICENTER": 2.9158, "MEAN_ANOMALY": 24.3516, "EPHEMERIS_TYPE": 0, "CLASSIFICATION_TYPE": "U", "NORAD_CAT_ID": 31384, "ELEMENT_SET_NO": 999, "REV_AT_EPOCH": 93220, "BSTAR": 0.0037539, "MEAN_MOTION_DOT": 9.306e-05, "MEAN_MOTION_DDOT": 0}, "tle": {"line1": "1 31384U 99025BSQ 25360.87277088  .00009306  00000+0  37539-2 0  9993", "line2": "2 31384  98.4563 325.6231 0439828   2.9158  24.3516 13.86317200932205"}}, "geometry": {"type": "Point", "coordinates": [-5.898981894045655, -72.4380915756891]}}, {"type": "Feature", "properties": {"norad_id": 31385, "name": "FENGYUN 1C DEB", "group": "fengyun-1c-debris", "lat": -58.84072885084948, "lon": -102.83970683544155, "alt_km": 815.9272039948064, "timestamp": "2025-12-27T08:36:18.664477+00:00", "meta": {"OBJECT_NAME": "FENGYUN 1C DEB", "OBJECT_ID": "1999-025BSR", "EPOCH": "2025-12-24T00:27:59.984928", "MEAN_MOTION": 14.44009849, "ECCENTRICITY": 0.0134107, "INCLINATION": 98.9532, "RA_OF_ASC_NODE": 88.7608, "ARG_OF_PERICENTER": 22.1757, "MEAN_ANOMALY": 150.7267, "EPHEMERIS_TYPE": 0, "CLASSIFICATION_TYPE": "U", "NORAD_CAT_ID": 31385, "ELEMENT_SET_NO": 999, "REV_AT_EPOCH": 98777, "BSTAR": 0.0001309881, "MEAN_MOTION_DOT": 4.45e-06, "MEAN_MOTION_DDOT": 0}, "tle": {"line1": "1 31385U 99025BSR 25358.01944427  .00000445  00000+0  13099-3 0  9996", "line2": "2 31385  98.9532  88.7608 0134107  22.1757 150.7267 14.44009849987774"}}, "geometry": {"type": "Point", "coordinates": [-102.83970683544155, -58.84072885084948]}}, {"type": "Feature", "properties": {"norad_id": 31386, "name": "FENGYUN 1C DEB", "group": "fengyun-1c-debris", "lat": 52.142028165511576, "lon": -154.1614651925771, "alt_km": 1001.5181058458575, "timestamp": "2025-12-27T08:36:18.664487+00:00", "meta": {"OBJECT_NAME": "FENGYUN 1C DEB", "OBJECT_ID": "1999-025BSS", "EPOCH": "2025-12-26T23:18:45.936864", "MEAN_MOTION": 13.86098372, "ECCENTRICITY": 0.0198208, "INCLINATION": 98.4389, "RA_OF_ASC_NODE": 14.479, "ARG_OF_PERICENTER": 245.2647, "MEAN_ANOMALY": 112.7769, "EPHEMERIS_TYPE": 0, "CLASSIFICATION_TYPE": "U", "NORAD_CAT_ID": 31386, "ELEMENT_SET_NO": 999, "REV_AT_EPOCH": 94059, "BSTAR": 0.0021077, "MEAN_MOTION_DOT": 2.795e-05, "MEAN_MOTION_DDOT": 0}, "tle": {"line1": "1 31386U 99025BSS 25360.97136501  .00002795  00000+0  21077-2 0  9995", "line2": "2 31386  98.4389  14.4790 0198208 245.2647 112.7769 13.86098372940594"}}, "geometry": {"type": "Point", "coordinates": [-154.1614651925771, 52.142028165511576]}}, {"type": "Feature", "properties": {"norad_id": 31387, "name": "FENGYUN 1C DEB", "group": "fengyun-1c-debris", "lat": 44.27650932921547, "lon": 69.25924027808082, "alt_km": 668.8057518668738, "timestamp": "2025-12-27T08:36:18.664497+00:00", "meta": {"OBJECT_NAME": "FENGYUN 1C DEB", "OBJECT_ID": "1999-025BST", "EPOCH": "2025-12-26T21:47:15.377568", "MEAN_MOTION": 14.13583169, "ECCENTRICITY": 0.0242279, "INCLINATION": 99.1675, "RA_OF_ASC_NODE": 239.7376, "ARG_OF_PERICENTER": 131.4276, "MEAN_ANOMALY": 230.7991, "EPHEMERIS_TYPE": 0, "CLASSIFICATION_TYPE": "U", "NORAD_CAT_ID": 31387, "ELEMENT_SET_NO": 999, "REV_AT_EPOCH": 96497, "BSTAR": 0.00020424, "MEAN_MOTION_DOT": 4.62e-06, "MEAN_MOTION_DDOT": 0}, "tle": {"line1": "1 31387U 99025BST 25360.90781687  .00000462  00000+0  20424-3 0  9995", "line2": "2 31387  99.1675 239.7376 0242279 131.4276 230.7991 14.13583169964975"}}, "geometry": {"type": "Point", "coordinates": [69.25924027808082, 44.27650932921547]}}, {"type": "Feature", "properties": {"norad_id": 31388, "name": "FENGYUN 1C DEB", "group": "fengyun-1c-debris", "lat": 30.80967939614929, "lon": -16.35567045416222, "alt_km": 887.6097051613315, "timestamp": "2025-12-27T08:36:18.664507+00:00", "meta": {"OBJECT_NAME": "FENGYUN 1C DEB", "OBJECT_ID": "1999-025BSU", "EPOCH": "2025-12-26T19:22:44.155200", "MEAN_MOTION": 14.07433102, "ECCENTRICITY": 0.0047211, "INCLINATION": 98.806, "RA_OF_ASC_NODE": 348.4114, "ARG_OF_PERICENTER": 161.3053, "MEAN_ANOMALY": 319.723, "EPHEMERIS_TYPE": 0, "CLASSIFICATION_TYPE": "U", "NORAD_CAT_ID": 31388, "ELEMENT_SET_NO": 999, "REV_AT_EPOCH": 96639, "BSTAR": 7.9062115e-05, "MEAN_MOTION_DOT": 9.2e-07, "MEAN_MOTION_DDOT": 0}, "tle": {"line1": "1 31388U 99025BSU 25360.80745550  .00000092  00000+0  79062-4 0  9996", "line2": "2 31388  98.8060 348.4114 0047211 161.3053 319.7230 14.07433102966398"}}, "geometry": {"type": "Point", "coordinates": [-16.35567045416222, 30.80967939614929]}}, {"type": "Feature", "properties": {"norad_id": 31389, "name": "FENGYUN 1C DEB", "group": "fengyun-1c-debris", "lat": -80.68210754031273, "lon": -115.86754646441611, "alt_km": 706.682145325377, "timestamp": "2025-12-27T08:36:18.664517+00:00", "meta": {"OBJECT_NAME": "FENGYUN 1C DEB", "OBJECT_ID": "1999-025BSV", "EPOCH": "2025-12-26T10:08:41.198784", "MEAN_MOTION": 14.61620113, "ECCENTRICITY": 0.0027136, "INCLINATION": 99.0411, "RA_OF_ASC_NODE": 167.0783, "ARG_OF_PERICENTER": 147.8825, "MEAN_ANOMALY": 242.6083, "EPHEMERIS_TYPE": 0, "CLASSIFICATION_TYPE": "U", "NORAD_CAT_ID": 31389, "ELEMENT_SET_NO": 999, "REV_AT_EPOCH": 96697, "BSTAR": 0.0046927, "MEAN_MOTION_DOT": 0.00023477, "MEAN_MOTION_DDOT": 0}, "tle": {"line1": "1 31389U 99025BSV 25360.42269906  .00023477  00000+0  46927-2 0  9995", "line2": "2 31389  99.0411 167.0783 0027136 147.8825 242.6083 14.61620113966973"}}, "geometry": {"type": "Point", "coordinates": [-115.86754646441611, -80.68210754031273]}}, {"type": "Feature", "properties": {"norad_id": 31410, "name": "FENGYUN 1C DEB", "group": "fengyun-1c-debris", "lat": -37.710885217715806, "lon": -23.410614494727337, "alt_km": 677.2196656806109, "timestamp": "2025-12-27T08:36:18.664528+00:00", "meta": {"OBJECT_NAME": "FENGYUN 1C DEB", "OBJECT_ID": "1999-025BSW", "EPOCH": "2025-12-26T16:42:06.729408", "MEAN_MOTION": 14.44856675, "ECCENTRICITY": 0.01104281, "INCLINATION": 98.837, "RA_OF_ASC_NODE": 162.809, "ARG_OF_PERICENTER": 244.7739, "MEAN_ANOMALY": 129.1682, "EPHEMERIS_TYPE": 0, "CLASSIFICATION_TYPE": "U", "NORAD_CAT_ID": 31410, "ELEMENT_SET_NO": 999, "REV_AT_EPOCH": 97953, "BSTAR": 0.0010626866, "MEAN_MOTION_DOT": 3.933e-05, "MEAN_MOTION_DDOT": 0}, "tle": {"line1": "1 31410U 99025BSW 25360.69591122  .00003933  00000+0  10627-2 0  9990", "line2": "2 31410  98.8370 162.8090 0110428 244.7739 129.1682 14.44856675979536"}}, "geometry": {"type": "Point", "coordinates": [-23.410614494727337, -37.710885217715806]}}, {"type": "Feature", "properties": {"norad_id": 31411, "name": "FENGYUN 1C DEB", "group": "fengyun-1c-debris", "lat": 9.197496033454756, "lon": -116.05326848352136, "alt_km": 745.2937718061903, "timestamp": "2025-12-27T08:36:18.664537+00:00", "meta": {"OBJECT_NAME": "FENGYUN 1C DEB", "OBJECT_ID": "1999-025BSX", "EPOCH": "2025-12-21T10:37:47.232192", "MEAN_MOTION": 14.28010304, "ECCENTRICITY": 0.01009094, "INCLINATION": 98.668, "RA_OF_ASC_NODE": 56.6601, "ARG_OF_PERICENTER": 229.1813, "MEAN_ANOMALY": 147.9658, "EPHEMERIS_TYPE": 0, "CLASSIFICATION_TYPE": "U", "NORAD_CAT_ID": 31411, "ELEMENT_SET_NO": 999, "REV_AT_EPOCH": 94604, "BSTAR": 0.00039943349, "MEAN_MOTION_DOT": 1.002e-05, "MEAN_MOTION_DDOT": 0}, "tle": {"line1": "1 31411U 99025BSX 25355.44290778  .00001002  00000+0  39943-3 0  9999", "line2": "2 31411  98.6680  56.6601 0100909 229.1813 147.9658 14.28010304946044"}}, "geometry": {"type": "Point", "coordinates": [-116.05326848352136, 9.197496033454756]}}]}